OBJECT_NAME,OBJECT_ID,EPOCH,MEAN_MOTION,ECCENTRICITY,INCLINATION,RA_OF_ASC_NODE,ARG_OF_PERICENTER,MEAN_ANOMALY,EPHEMERIS_TYPE,CLASSIFICATION_TYPE,NORAD_CAT_ID,ELEMENT_SET_NO,REV_AT_EPOCH,BSTAR,MEAN_MOTION_DOT,MEAN_MOTION_DDOT
TIANQI-6,2020-076D,2026-07-06T16:16:57.254880,15.07320242,.001054,34.9996,288.8314,337.9700,22.0556,0,U,46810,999,31152,.20167E-3,.3084E-4,0
KSM1-C,2020-081B,2026-07-06T18:39:11.104704,15.27088111,.0002367,36.8963,297.9730,1.8777,358.1981,0,U,46906,999,31216,.25841E-3,.6936E-4,0
KSM1-D,2020-081C,2026-07-06T19:19:27.689376,15.25025345,.0002817,36.8981,307.1904,44.7094,315.3881,0,U,46907,999,31209,.28369E-3,.716E-4,0
KSM1-A,2020-081H,2026-07-06T17:24:14.377824,15.26290984,.0001943,36.8973,300.8361,117.2737,242.8210,0,U,46912,999,31216,.32896E-3,.8646E-4,0
R2,2020-081J,2026-07-06T08:39:36.304704,15.25733870,.00068702,36.8978,303.1680,85.0008,275.1525,0,U,46913,999,31491,.31211581E-3,.8064E-4,0
KSM1-B,2020-081K,2026-07-06T16:19:48.872928,15.24808735,.0004121,36.9032,308.6118,76.5381,283.5827,0,U,46914,999,31516,.29251E-3,.7338E-4,0
GONETS-M 20,2020-091A,2026-07-07T05:03:27.097920,12.42894789,.0021972,82.5053,289.9900,135.5248,224.7600,0,U,47227,999,25356,.96894E-3,.144E-5,0
GONETS-M 21,2020-091B,2026-07-07T04:25:57.343872,12.42888139,.0015616,82.4977,288.7010,148.3247,211.8776,0,U,47228,999,25355,.15126E-2,.219E-5,0
GONETS-M 22,2020-091C,2026-07-07T05:43:00.538752,12.42894213,.0022869,82.5035,289.5757,130.9756,229.3307,0,U,47229,999,25351,.14429E-2,.21E-5,0
CUBEL,2021-006AM,2026-07-07T02:09:12.494016,15.41896528,.0008018,97.2316,238.4928,105.7534,254.4598,0,U,47448,999,30282,.19437E-3,.8181E-4,0
ARKTIKA-M 1,2021-016A,2026-07-06T10:21:59.496768,2.00615404,.7294925,63.2546,54.8487,270.0174,14.5556,0,U,47719,999,3917,0,-.238E-5,0
STARLINK-2342,2021-021Z,2026-07-07T04:00:03.000096,15.89271891,.0006224,53.1515,47.3755,255.2675,94.8517,0,U,47883,999,608,.64956E-3,.195869E-2,0
GRUS-1B,2021-022C,2026-07-07T04:56:08.737152,14.98762930,.0014623,97.5338,70.7377,249.1920,110.7737,0,U,47934,999,28889,.12669E-3,.1471E-4,0
UNISAT-7,2021-022P,2026-07-07T00:47:34.268064,15.41038284,.0009005,97.3864,93.1692,17.5564,342.5992,0,U,47945,999,29291,.27285E-3,.11197E-3,0
GLOBAL-9,2021-023G,2026-07-06T08:49:08.825664,15.47338011,.0002625,44.9802,142.6639,95.8826,264.2364,0,U,47971,999,29791,.34917E-3,.17918E-3,0
AII-BRAVO,2021-034C,2026-07-06T15:41:35.689056,15.03623426,.0005634,97.5590,242.1222,185.1587,174.9581,0,U,48270,999,28254,.23171E-3,.311E-4,0
TYVAK-182A,2021-034D,2026-07-06T17:28:44.073696,15.06350744,.0004527,97.5701,246.3072,258.1207,101.9513,0,U,48271,999,28277,.2496E-3,.3611E-4,0
CSS (TIANHE),2021-035A,2026-07-07T01:46:56.140032,15.58021672,.0002919,41.4675,201.0524,274.9439,85.1065,0,U,48274,999,29627,.13289E-3,.9938E-4,0
TYVAK-0130,2021-041BF,2026-07-06T12:58:34.910976,15.27855213,.0008579,52.9949,296.1908,227.4206,132.6069,0,U,48606,999,28334,.19648E-3,.507E-4,0
HAIYANG-2D,2021-043A,2026-07-07T04:09:56.797056,13.83374234,.001156,65.9978,254.9414,266.8295,93.1451,0,U,48621,999,25931,.35956E-3,.315E-5,0
2021-050D,2021-050D,2026-07-07T04:07:48.260640,15.23540780,.0005663,97.3325,263.7542,177.6758,182.4507,0,U,48843,999,28200,.16867E-3,.3961E-4,0
TYVAK-0173,2021-059P,2026-07-06T04:07:13.120896,14.81953172,.000801,96.0077,258.8094,336.3355,23.7493,0,U,48892,999,27105,.23085E-3,.1798E-4,0
MANDRAKE 2 ABLE,2021-059AE,2026-07-06T23:44:30.155424,15.55818938,.0003509,97.7037,19.2949,274.1422,85.9430,0,U,48907,999,28020,.24258E-3,.16663E-3,0
MANDRAKE 2 BAKER,2021-059AF,2026-07-06T02:12:29.879136,15.60598515,.0002198,97.7000,21.3340,267.2089,92.8916,0,U,48908,999,28024,.37921E-3,.31291E-3,0
PACE-1,2021-059AG,2026-07-06T01:44:06.923904,15.83608652,.0002866,97.6734,27.3937,201.5313,158.5836,0,U,48909,999,28078,.57119E-3,.126204E-2,0
YAM-3,2021-059AN,2026-07-06T18:33:19.957824,15.49009629,.000374,97.6998,16.0140,286.3013,73.7826,0,U,48915,999,28002,.187E-3,.10023E-3,0
FARADAY_PHOENIX,2021-059AX,2026-07-06T23:01:52.171104,15.84594264,.0005244,97.6781,28.2753,222.1854,137.9012,0,U,48924,999,28078,.64139E-3,.148959E-2,0
DEMO8 (TENZING),2021-059CA,2026-07-06T23:48:57.612672,15.55788133,.0005334,97.7022,22.9295,268.1980,91.8662,0,U,48951,999,28038,.22487E-3,.15424E-3,0
FENGYUN 3E,2021-062A,2026-07-07T03:27:06.638976,14.19905767,.0002555,98.7499,191.3295,53.1089,307.0322,0,U,49008,999,25941,.61979E-4,.88E-6,0
