TIANQI-6                
1 46810U 20076D   26187.67844045  .00003084  00000+0  20167-3 0  9999
2 46810  34.9996 288.8314 0010540 337.9700  22.0556 15.07320242311522
KSM1-C                  
1 46906U 20081B   26187.77721186  .00006936  00000+0  25841-3 0  9995
2 46906  36.8963 297.9730 0002367   1.8777 358.1981 15.27088111312169
KSM1-D                  
1 46907U 20081C   26187.80518159  .00007160  00000+0  28369-3 0  9992
2 46907  36.8981 307.1904 0002817  44.7094 315.3881 15.25025345312099
KSM1-A                  
1 46912U 20081H   26187.72516641  .00008646  00000+0  32896-3 0  9993
2 46912  36.8973 300.8361 0001943 117.2737 242.8210 15.26290984312164
R2                      
1 46913U 20081J   26187.36083686  .00008064  00000+0  31212-3 0  9997
2 46913  36.8978 303.1680 0006870  85.0008 275.1525 15.25733870314915
KSM1-B                  
1 46914U 20081K   26187.68042677  .00007338  00000+0  29251-3 0  9991
2 46914  36.9032 308.6118 0004121  76.5381 283.5827 15.24808735315168
GONETS-M 20             
1 47227U 20091A   26188.21073030  .00000144  00000+0  96894-3 0  9992
2 47227  82.5053 289.9900 0021972 135.5248 224.7600 12.42894789253569
GONETS-M 21             
1 47228U 20091B   26188.18469148  .00000219  00000+0  15126-2 0  9999
2 47228  82.4977 288.7010 0015616 148.3247 211.8776 12.42888139253554
GONETS-M 22             
1 47229U 20091C   26188.23820068  .00000210  00000+0  14429-2 0  9994
2 47229  82.5035 289.5757 0022869 130.9756 229.3307 12.42894213253518
CUBEL                   
1 47448U 21006AM  26188.08972794  .00008181  00000+0  19437-3 0  9991
2 47448  97.2316 238.4928 0008018 105.7534 254.4598 15.41896528302826
ARKTIKA-M 1             
1 47719U 21016A   26187.43193862 -.00000238  00000+0  00000+0 0  9990
2 47719  63.2546  54.8487 7294925 270.0174  14.5556  2.00615404 39179
STARLINK-2342           
1 47883U 21021Z   26188.16670139  .00195869  00000+0  64956-3 0  9994
2 47883  53.1515  47.3755 0006224 255.2675  94.8517 15.89271891  6088
GRUS-1B                 
1 47934U 21022C   26188.20565668  .00001471  00000+0  12669-3 0  9996
2 47934  97.5338  70.7377 0014623 249.1920 110.7737 14.98762930288898
UNISAT-7                
1 47945U 21022P   26188.03303551  .00011197  00000+0  27285-3 0  9996
2 47945  97.3864  93.1692 0009005  17.5564 342.5992 15.41038284292913
GLOBAL-9                
1 47971U 21023G   26187.36746326  .00017918  00000+0  34917-3 0  9999
2 47971  44.9802 142.6639 0002625  95.8826 264.2364 15.47338011297919
AII-BRAVO               
1 48270U 21034C   26187.65388529  .00003110  00000+0  23171-3 0  9992
2 48270  97.5590 242.1222 0005634 185.1587 174.9581 15.03623426282544
TYVAK-182A              
1 48271U 21034D   26187.72828789  .00003611  00000+0  24960-3 0  9991
2 48271  97.5701 246.3072 0004527 258.1207 101.9513 15.06350744282771
CSS (TIANHE)            
1 48274U 21035A   26188.07426088  .00009938  00000+0  13289-3 0  9990
2 48274  41.4675 201.0524 0002919 274.9439  85.1065 15.58021672296275
TYVAK-0130              
1 48606U 21041BF  26187.54068184  .00005070  00000+0  19648-3 0  9994
2 48606  52.9949 296.1908 0008579 227.4206 132.6069 15.27855213283347
HAIYANG-2D              
1 48621U 21043A   26188.17357404  .00000315  00000+0  35956-3 0  9996
2 48621  65.9978 254.9414 0011560 266.8295  93.1451 13.83374234259318
2021-050D               
1 48843U 21050D   26188.17208635  .00003961  00000+0  16867-3 0  9991
2 48843  97.3325 263.7542 0005663 177.6758 182.4507 15.23540780282002
TYVAK-0173              
1 48892U 21059P   26187.17167964  .00001798  00000+0  23085-3 0  9998
2 48892  96.0077 258.8094 0008010 336.3355  23.7493 14.81953172271059
MANDRAKE 2 ABLE         
1 48907U 21059AE  26187.98923791  .00016663  00000+0  24258-3 0  9992
2 48907  97.7037  19.2949 0003509 274.1422  85.9430 15.55818938280200
MANDRAKE 2 BAKER        
1 48908U 21059AF  26187.09201249  .00031291  00000+0  37921-3 0  9997
2 48908  97.7000  21.3340 0002198 267.2089  92.8916 15.60598515280247
PACE-1                  
1 48909U 21059AG  26187.07230236  .00126204  00000+0  57119-3 0  9994
2 48909  97.6734  27.3937 0002866 201.5313 158.5836 15.83608652280781
YAM-3                   
1 48915U 21059AN  26187.77314766  .00010023  00000+0  18700-3 0  9993
2 48915  97.6998  16.0140 0003740 286.3013  73.7826 15.49009629280026
FARADAY_PHOENIX         
1 48924U 21059AX  26187.95963161  .00148959  00000+0  64139-3 0  9999
2 48924  97.6781  28.2753 0005244 222.1854 137.9012 15.84594264280789
DEMO8 (TENZING)         
1 48951U 21059CA  26187.99233348  .00015424  00000+0  22487-3 0  9990
2 48951  97.7022  22.9295 0005334 268.1980  91.8662 15.55788133280383
FENGYUN 3E              
1 49008U 21062A   26188.14382684  .00000088  00000+0  61979-4 0  9994
2 49008  98.7499 191.3295 0002555  53.1089 307.0322 14.19905767259419
